ACS3                    
1 59588U 24077B   24120.81728331  .00000021  00000+0  58545-4 0  9990
2 59588  97.4074 200.2286 0019393 223.7822 136.1792 13.67673731   798
